NORAD_CAT_ID,OBJECT_NAME,OBJECT_TYPE,EPOCH,MEAN_MOTION,ECCENTRICITY,INCLINATION,RA_OF_ASC_NODE,ARG_OF_PERICENTER,MEAN_ANOMALY,BSTAR,MEAN_MOTION_DOT,MEAN_MOTION_DDOT,TLE_LINE0,TLE_LINE1,TLE_LINE2,SEMIMAJOR_AXIS,PERIOD,APOGEE,PERIGEE,DECAYED
56787.0,STARLINK-6326,PAYLOAD,2024-05-06 12:50:47,14.9837417,0.0003005,70.0013,219.1013,266.1409,93.9407,0.0012193,0.00014502,0.0,0 STARLINK-6326,1 56787U 23078W   24127.53526853  .00014502  00000-0  12193-2 0  9996,2 56787  70.0013 219.1013 0003005 266.1409  93.9407 14.98374170 52754,6950.056,96.104,574.01,569.833,0.0
56787.0,STARLINK-6326,PAYLOAD,2024-05-06 14:26:54,14.98387447,0.0002959,70.0014,218.9334,265.2332,94.8489,0.0014807,0.00017645,0.0,0 STARLINK-6326,1 56787U 23078W   24127.60202253  .00017645  00000-0  14807-2 0  9994,2 56787  70.0014 218.9334 0002959 265.2332  94.8489 14.98387447 52504,6950.015,96.103,573.937,569.824,0.0
56787.0,STARLINK-6326,PAYLOAD,2024-05-06 16:03:02,14.9839379,0.0002901,70.0025,218.7657,263.19,96.8929,0.0017526,0.00020916,0.0,0 STARLINK-6326,1 56787U 23078W   24127.66878259  .00020916  00000-0  17526-2 0  9991,2 56787  70.0025 218.7657 0002901 263.1900  96.8929 14.98393790 52775,6949.996,96.103,573.877,569.844,0.0
56787.0,STARLINK-6326,PAYLOAD,2024-05-07 04:52:07,14.9836108,0.0002834,70.002,217.4185,263.8477,96.2359,0.0005247,6.178e-05,0.0,0 STARLINK-6326,1 56787U 23078W   24128.20286696  .00006178  00000-0  52470-3 0  9992,2 56787  70.0020 217.4185 0002834 263.8477  96.2359 14.98361080 52850,6950.097,96.105,573.931,569.992,0.0
56787.0,STARLINK-6326,PAYLOAD,2024-05-07 12:52:48,14.98328053,0.0003092,70.0026,216.577,272.176,87.9045,-0.0011924,-0.00014291,0.0,0 STARLINK-6326,1 56787U 23078W   24128.53666681 -.00014291  00000-0 -11924-2 0  9999,2 56787  70.0026 216.5770 0003092 272.1760  87.9045 14.98328053 52909,6950.199,96.107,574.213,569.915,0.0
56787.0,STARLINK-6326,PAYLOAD,2024-05-07 14:28:56,14.98327267,0.0003115,70.0026,216.4087,273.1066,86.9737,-0.00094077,-0.00011299,0.0,0 STARLINK-6326,1 56787U 23078W   24128.60342743 -.00011299  00000-0 -94077-3 0  9993,2 56787  70.0026 216.4087 0003115 273.1066  86.9737 14.98327267 52650,6950.201,96.107,574.231,569.901,0.0
56787.0,STARLINK-6326,PAYLOAD,2024-05-07 16:05:04,14.98325601,0.0003136,70.0024,216.2403,273.8493,86.2308,-0.00072417,-8.722e-05,0.0,0 STARLINK-6326,1 56787U 23078W   24128.67018856 -.00008722  00000-0 -72417-3 0  9996,2 56787  70.0024 216.2403 0003136 273.8493  86.2308 14.98325601 52660,6950.206,96.107,574.251,569.892,0.0
56787.0,STARLINK-6326,PAYLOAD,2024-05-08 12:54:50,14.98331962,0.0003178,70.0023,214.0522,277.4069,82.6729,0.0013714,0.00016309,0.0,0 STARLINK-6326,1 56787U 23078W   24129.53807978  .00016309  00000-0  13714-2 0  9995,2 56787  70.0023 214.0522 0003178 277.4069  82.6729 14.98331962 53050,6950.187,96.107,574.261,569.843,0.0
56787.0,STARLINK-6326,PAYLOAD,2024-05-08 14:30:58,14.98334548,0.0003197,70.0022,213.8838,277.9066,82.173,0.0014017,0.00016674,0.0,0 STARLINK-6326,1 56787U 23078W   24129.60483966  .00016674  00000-0  14017-2 0  9992,2 56787  70.0022 213.8838 0003197 277.9066  82.1730 14.98334548 52801,6950.179,96.107,574.266,569.822,0.0
56787.0,STARLINK-6326,PAYLOAD,2024-05-08 16:07:06,14.98336874,0.0003207,70.0021,213.7155,277.998,82.0815,0.0014061,0.00016728,0.0,0 STARLINK-6326,1 56787U 23078W   24129.67159940  .00016728  00000-0  14061-2 0  9990,2 56787  70.0021 213.7155 0003207 277.9980  82.0815 14.98336874 52816,6950.172,96.107,574.266,569.808,0.0
56787.0,STARLINK-6326,PAYLOAD,2024-05-09 12:56:51,14.98337393,0.0003039,70.0023,211.5283,276.1479,83.9333,0.00067364,7.955e-05,0.0,0 STARLINK-6326,1 56787U 23078W   24130.53948086  .00007955  00000-0  67364-3 0  9991,2 56787  70.0023 211.5283 0003039 276.1479  83.9333 14.98337393 53209,6950.17,96.107,574.147,569.923,0.0
56787.0,STARLINK-6326,PAYLOAD,2024-05-09 14:32:59,14.98337938,0.0003045,70.0022,211.36,275.9751,84.1061,0.00066172,7.813e-05,0.0,0 STARLINK-6326,1 56787U 23078W   24130.60624070  .00007813  00000-0  66172-3 0  9992,2 56787  70.0022 211.3600 0003045 275.9751  84.1061 14.98337938 52953,6950.168,96.106,574.15,569.917,0.0
56787.0,STARLINK-6326,PAYLOAD,2024-05-10 12:58:52,14.98329467,0.0002859,70.0018,209.0024,267.5841,92.4991,0.00017977,2.053e-05,0.0,0 STARLINK-6326,1 56787U 23078W   24131.54088473  .00002053  00000-0  17977-3 0  9997,2 56787  70.0018 209.0024 0002859 267.5841  92.4991 14.98329467 53358,6950.195,96.107,574.047,570.072,0.0
56787.0,STARLINK-6326,PAYLOAD,2024-05-10 14:35:00,14.98325515,0.0002948,70.0019,208.8345,269.2477,90.8344,0.0003456,4.033e-05,0.0,0 STARLINK-6326,1 56787U 23078W   24131.60764736  .00004033  00000-0  34560-3 0  9994,2 56787  70.0019 208.8345 0002948 269.2477  90.8344 14.98325515 53102,6950.207,96.107,574.121,570.023,0.0
56787.0,STARLINK-6326,PAYLOAD,2024-05-11 13:00:50,14.98408158,0.0003116,70.0016,206.4782,271.7586,88.3216,0.0026483,0.00031714,0.0,0 STARLINK-6326,1 56787U 23078W   24132.54225509  .00031714  00000-0  26483-2 0  9998,2 56787  70.0016 206.4782 0003116 271.7586  88.3216 14.98408158 53504,6949.951,96.102,573.982,569.651,0.0
56787.0,STARLINK-6326,PAYLOAD,2024-05-11 22:37:40,14.98332667,0.0002535,70.0011,205.4687,284.5837,75.504,-0.00068353,-8.239e-05,0.0,0 STARLINK-6326,1 56787U 23078W   24132.94282758 -.00008239  00000-0 -68353-3 0  9992,2 56787  70.0011 205.4687 0002535 284.5837  75.5040 14.98332667 53309,6950.185,96.107,573.812,570.288,0.0
56787.0,STARLINK-6326,PAYLOAD,2024-05-12 05:02:12,14.98292048,0.0003119,70.0013,204.7953,277.1911,82.8894,-0.0029224,-0.00034757,0.0,0 STARLINK-6326,1 56787U 23078W   24133.20987090 -.00034757  00000-0 -29224-2 0  9990,2 56787  70.0013 204.7953 0003119 277.1911  82.8894 14.98292048 53608,6950.31,96.109,574.343,570.007,0.0
56787.0,STARLINK-6326,PAYLOAD,2024-05-12 14:39:03,14.98258388,0.0002984,70.001,203.7849,277.4916,82.5904,0.00087973,0.000104,0.0,0 STARLINK-6326,1 56787U 23078W   24133.61045164  .00010400  00000-0  87973-3 0  9995,2 56787  70.0010 203.7849 0002984 277.4916  82.5904 14.98258388 53401,6950.414,96.112,574.353,570.205,0.0
56787.0,STARLINK-6326,PAYLOAD,2024-05-13 05:04:17,14.98285599,0.0003041,70.0008,202.27,277.4662,82.6151,0.0016426,0.00019538,0.0,0 STARLINK-6326,1 56787U 23078W   24134.21131387  .00019538  00000-0  16426-2 0  9990,2 56787  70.0008 202.2700 0003041 277.4662  82.6151 14.98285599 53758,6950.33,96.11,574.309,570.082,0.0
56787.0,STARLINK-6326,PAYLOAD,2024-05-13 11:28:49,14.98327148,0.0002902,70.0012,201.5975,270.528,89.5547,0.0027429,0.00032786,0.0,0 STARLINK-6326,1 56787U 23078W   24134.47835411  .00032786  00000-0  27429-2 0  9992,2 56787  70.0012 201.5975 0002902 270.5280  89.5547 14.98327148 53790,6950.202,96.107,574.084,570.05,0.0
56787.0,STARLINK-6326,PAYLOAD,2024-05-13 21:05:38,14.98340811,0.0002874,70.0013,200.5876,273.4299,86.6531,0.0016916,0.00020155,0.0,0 STARLINK-6326,1 56787U 23078W   24134.87891274  .00020155  00000-0  16916-2 0  9991,2 56787  70.0013 200.5876 0002874 273.4299  86.6531 14.98340811 53591,6950.159,96.106,574.022,570.027,0.0
56787.0,STARLINK-6326,PAYLOAD,2024-05-14 05:06:17,14.98351129,0.0002958,70.0008,199.7456,276.1585,83.9237,0.0015501,0.00018461,0.0,0 STARLINK-6326,1 56787U 23078W   24135.21270818  .00018461  00000-0  15501-2 0  9991,2 56787  70.0008 199.7456 0002958 276.1585  83.9237 14.98351129 53901,6950.128,96.106,574.048,569.937,0.0
56787.0,STARLINK-6326,PAYLOAD,2024-05-14 11:30:49,14.98356285,0.0002794,70.0007,199.0715,277.9777,82.1065,0.0010312,0.00012241,0.0,0 STARLINK-6326,1 56787U 23078W   24135.47974387  .00012241  00000-0  10312-2 0  9996,2 56787  70.0007 199.0715 0002794 277.9777  82.1065 14.98356285 53684,6950.112,96.105,573.918,570.035,0.0
56787.0,STARLINK-6326,PAYLOAD,2024-05-14 21:07:37,14.98364336,0.0002962,70.0009,198.0619,277.961,82.1212,0.00086669,0.00010273,0.0,0 STARLINK-6326,1 56787U 23078W   24135.88029506  .00010273  00000-0  86669-3 0  9997,2 56787  70.0009 198.0619 0002962 277.9610  82.1212 14.98364336 53748,6950.087,96.105,574.01,569.893,0.0
56787.0,STARLINK-6326,PAYLOAD,2024-05-15 05:08:17,14.98361905,0.00029,70.001,197.2207,276.3068,83.776,0.0005034,5.923e-05,0.0,0 STARLINK-6326,1 56787U 23078W   24136.21408932  .00005923  00000-0  50340-3 0  9992,2 56787  70.0010 197.2207 0002900 276.3068  83.7760 14.98361905 54055,6950.094,96.105,573.975,569.944,0.0
56787.0,STARLINK-6326,PAYLOAD,2024-05-15 13:08:56,14.98367852,0.0002837,70.0013,196.3794,273.5863,86.4971,0.0005506,6.489e-05,0.0,0 STARLINK-6326,1 56787U 23078W   24136.54788080  .00006489  00000-0  55060-3 0  9995,2 56787  70.0013 196.3794 0002837 273.5863  86.4971 14.98367852 53847,6950.076,96.105,573.913,569.969,0.0
56787.0,STARLINK-6326,PAYLOAD,2024-05-15 21:09:36,14.98361218,0.0002859,70.0027,195.5339,271.7683,88.3148,0.00033222,3.876e-05,0.0,0 STARLINK-6326,1 56787U 23078W   24136.88167601  .00003876  00000-0  33222-3 0  9995,2 56787  70.0027 195.5339 0002859 271.7683  88.3148 14.98361218 53894,6950.096,96.105,573.948,569.974,0.0
56787.0,STARLINK-6326,PAYLOAD,2024-05-16 05:10:17,14.98345559,0.0003001,70.0012,194.6961,270.0583,90.0232,-0.00019897,-2.467e-05,0.0,0 STARLINK-6326,1 56787U 23078W   24137.21547693 -.00002467  00000-0 -19897-3 0  9995,2 56787  70.0012 194.6961 0003001 270.0583  90.0232 14.98345559 54200,6950.145,96.106,574.096,569.924,0.0
56787.0,STARLINK-6326,PAYLOAD,2024-05-16 11:34:49,14.98353708,0.0002875,70.0009,194.0215,269.0428,91.0402,0.00013598,1.531e-05,0.0,0 STARLINK-6326,1 56787U 23078W   24137.48251251  .00001531  00000-0  13598-3 0  9997,2 56787  70.0009 194.0215 0002875 269.0428  91.0402 14.98353708 53985,6950.12,96.105,573.983,569.986,0.0
56787.0,STARLINK-6326,PAYLOAD,2024-05-16 21:11:37,14.98342603,0.0003124,70.0017,193.0129,275.2734,84.8069,8.5379e-05,9.26e-06,0.0,0 STARLINK-6326,1 56787U 23078W   24137.88307187  .00000926  00000-0  85379-4 0  9995,2 56787  70.0017 193.0129 0003124 275.2734  84.8069 14.98342603 54043,6950.154,96.106,574.19,569.848,0.0
